*******************************************************************************
Ephemeris / WWW_USER Mon Jul 15 19:26:40 2024 Pasadena, USA      / Horizons    
*******************************************************************************
Target body name: (2018 RA1)                      {source: JPL#6}
Center body name: Earth (399)                     {source: DE441}
Center-site name: Gemini South Obs., Cerro Pachon
*******************************************************************************
Start time      : A.D. 2018-Dec-14 23:49:00.0000 UT      
Stop  time      : A.D. 2018-Dec-15 09:26:00.0000 UT      
Step-size       : 1 minutes
*******************************************************************************
Target pole/equ : undefined
Target radii    : undefined                                                    
Center geodetic : 289.2634, -30.2406227, 2.71233  {E-lon(deg),Lat(deg),Alt(km)}
Center cylindric: 289.2634,5517.21435,-3194.81213 {E-lon(deg),Dxy(km),Dz(km)}
Center pole/equ : ITRF93                          {East-longitude positive}
Center radii    : 6378.137, 6378.137, 6356.752 km {Equator_a, b, pole_c}       
Target primary  : Sun
Vis. interferer : MOON (R_eq= 1737.400) km        {source: DE441}
Rel. light bend : Sun                             {source: DE441}
Rel. lght bnd GM: 1.3271E+11 km^3/s^2                                          
Small-body perts: Yes                             {source: SB441-N16}
Atmos refraction: NO (AIRLESS)
RA format       : HMS
Time format     : CAL 
Calendar mode   : Mixed Julian/Gregorian
RTS-only print  : NO       
EOP file        : eop.240715.p241008                                           
EOP coverage    : DATA-BASED 1962-JAN-20 TO 2024-JUL-15. PREDICTS-> 2024-OCT-07
Units conversion: 1 au= 149597870.700 km, c= 299792.458 km/s, 1 day= 86400.0 s 
Table cut-offs 1: Elevation (-90.0deg=NO ),Airmass (>38.000=NO), Daylight (YES)
Table cut-offs 2: Solar elongation (  0.0,180.0=NO ),Local Hour Angle( 0.0=NO )
Table cut-offs 3: RA/DEC angular rate (     0.0=NO )                           
*******************************************************************************
Initial IAU76/J2000 heliocentric ecliptic osculating elements (au, days, deg.):
  EPOCH=  2458369.5 ! 2018-Sep-08.00 (TDB)         Residual RMS= .21275        
   EC= .3232115344739424   QR= .7703453101153647   TP= 2458436.6763547547      
   OM= 166.2054176892707   W=  269.7217787981747   IN= 8.763099478405824       
  Equivalent ICRF heliocentric cartesian coordinates (au, au/d):
   X= 9.899686155013647E-01  Y=-2.468208982240139E-01  Z=-1.030323866474361E-01
  VX=-9.411283005844916E-04 VY= 1.717513364149167E-02 VZ= 4.613440841260365E-03
Asteroid physical parameters (km, seconds, rotational period in hours):        
   GM= n.a.                RAD= n.a.               ROTPER= n.a.                
   H= 26.4                 G= .150                 B-V= n.a.                   
                           ALBEDO= n.a.            STYP= n.a.                  
*******************************************************************************
 Date__(UT)__HR:MN     R.A._________(ICRF)_________DEC
******************************************************
$$SOE
 2018-Dec-14 23:49 Cm  13 23 27.298959 -16 30 26.62421
 2018-Dec-14 23:50 Cm  13 23 27.431699 -16 30 26.76511
 2018-Dec-14 23:51 Cm  13 23 27.564440 -16 30 26.90607
 2018-Dec-14 23:52 Cm  13 23 27.697185 -16 30 27.04708
 2018-Dec-14 23:53 Cm  13 23 27.829932 -16 30 27.18816
 2018-Dec-14 23:54 Cm  13 23 27.962682 -16 30 27.32930
 2018-Dec-14 23:55 Cm  13 23 28.095434 -16 30 27.47050
 2018-Dec-14 23:56 Cm  13 23 28.228188 -16 30 27.61176
 2018-Dec-14 23:57 Cm  13 23 28.360945 -16 30 27.75308
 2018-Dec-14 23:58 Cm  13 23 28.493704 -16 30 27.89446
 2018-Dec-14 23:59 Cm  13 23 28.626466 -16 30 28.03590
 2018-Dec-15 00:00 Cm  13 23 28.759229 -16 30 28.17740
 2018-Dec-15 00:01 Cm  13 23 28.891995 -16 30 28.31897
 2018-Dec-15 00:02 Cm  13 23 29.024762 -16 30 28.46059
 2018-Dec-15 00:03 Cm  13 23 29.157532 -16 30 28.60228
 2018-Dec-15 00:04 Cm  13 23 29.290303 -16 30 28.74402
 2018-Dec-15 00:05 Cm  13 23 29.423076 -16 30 28.88583
 2018-Dec-15 00:06 Cm  13 23 29.555851 -16 30 29.02770
 2018-Dec-15 00:07 Cm  13 23 29.688628 -16 30 29.16963
 2018-Dec-15 00:08 Nm  13 23 29.821406 -16 30 29.31162
 2018-Dec-15 00:09 Nm  13 23 29.954185 -16 30 29.45367
 2018-Dec-15 00:10 Nm  13 23 30.086967 -16 30 29.59578
 2018-Dec-15 00:11 Nm  13 23 30.219749 -16 30 29.73795
 2018-Dec-15 00:12 Nm  13 23 30.352533 -16 30 29.88019
 2018-Dec-15 00:13 Nm  13 23 30.485319 -16 30 30.02248
 2018-Dec-15 00:14 Nm  13 23 30.618105 -16 30 30.16484
 2018-Dec-15 00:15 Nm  13 23 30.750893 -16 30 30.30726
 2018-Dec-15 00:16 Nm  13 23 30.883682 -16 30 30.44974
 2018-Dec-15 00:17 Nm  13 23 31.016472 -16 30 30.59228
 2018-Dec-15 00:18 Nm  13 23 31.149262 -16 30 30.73488
 2018-Dec-15 00:19 Nm  13 23 31.282054 -16 30 30.87754
 2018-Dec-15 00:20 Nm  13 23 31.414847 -16 30 31.02027
 2018-Dec-15 00:21 Nm  13 23 31.547640 -16 30 31.16305
 2018-Dec-15 00:22 Nm  13 23 31.680434 -16 30 31.30590
 2018-Dec-15 00:23 Nm  13 23 31.813229 -16 30 31.44881
 2018-Dec-15 00:24 Nm  13 23 31.946024 -16 30 31.59178
 2018-Dec-15 00:25 Nm  13 23 32.078820 -16 30 31.73481
 2018-Dec-15 00:26 Nm  13 23 32.211616 -16 30 31.87790
 2018-Dec-15 00:27 Nm  13 23 32.344412 -16 30 32.02106
 2018-Dec-15 00:28 Nm  13 23 32.477209 -16 30 32.16427
 2018-Dec-15 00:29 Nm  13 23 32.610006 -16 30 32.30755
 2018-Dec-15 00:30 Nm  13 23 32.742804 -16 30 32.45089
 2018-Dec-15 00:31 Nm  13 23 32.875601 -16 30 32.59429
 2018-Dec-15 00:32 Nm  13 23 33.008399 -16 30 32.73775
 2018-Dec-15 00:33 Nm  13 23 33.141196 -16 30 32.88127
 2018-Dec-15 00:34 Nm  13 23 33.273994 -16 30 33.02486
 2018-Dec-15 00:35 Nm  13 23 33.406791 -16 30 33.16850
 2018-Dec-15 00:36 Nm  13 23 33.539588 -16 30 33.31221
 2018-Dec-15 00:37 Nm  13 23 33.672385 -16 30 33.45598
 2018-Dec-15 00:38 Nm  13 23 33.805181 -16 30 33.59981
 2018-Dec-15 00:39 Nm  13 23 33.937977 -16 30 33.74370
 2018-Dec-15 00:40 Nm  13 23 34.070773 -16 30 33.88765
 2018-Dec-15 00:41 Nm  13 23 34.203568 -16 30 34.03166
 2018-Dec-15 00:42 Am  13 23 34.336362 -16 30 34.17574
 2018-Dec-15 00:43 Am  13 23 34.469156 -16 30 34.31988
 2018-Dec-15 00:44 Am  13 23 34.601949 -16 30 34.46407
 2018-Dec-15 00:45 Am  13 23 34.734741 -16 30 34.60833
 2018-Dec-15 00:46 Am  13 23 34.867533 -16 30 34.75265
 2018-Dec-15 00:47 Am  13 23 35.000323 -16 30 34.89703
 2018-Dec-15 00:48 Am  13 23 35.133113 -16 30 35.04148
 2018-Dec-15 00:49 Am  13 23 35.265901 -16 30 35.18598
 2018-Dec-15 00:50 Am  13 23 35.398688 -16 30 35.33055
 2018-Dec-15 00:51 Am  13 23 35.531474 -16 30 35.47517
 2018-Dec-15 00:52 Am  13 23 35.664259 -16 30 35.61986
 2018-Dec-15 00:53 Am  13 23 35.797043 -16 30 35.76461
 2018-Dec-15 00:54 Am  13 23 35.929825 -16 30 35.90942
 2018-Dec-15 00:55 Am  13 23 36.062606 -16 30 36.05429
 2018-Dec-15 00:56 Am  13 23 36.195385 -16 30 36.19922
 2018-Dec-15 00:57 Am  13 23 36.328163 -16 30 36.34422
 2018-Dec-15 00:58 Am  13 23 36.460939 -16 30 36.48927
 2018-Dec-15 00:59 Am  13 23 36.593713 -16 30 36.63439
 2018-Dec-15 01:00 Am  13 23 36.726485 -16 30 36.77956
 2018-Dec-15 01:01 Am  13 23 36.859256 -16 30 36.92480
 2018-Dec-15 01:02 Am  13 23 36.992025 -16 30 37.07010
 2018-Dec-15 01:03 Am  13 23 37.124792 -16 30 37.21546
 2018-Dec-15 01:04 Am  13 23 37.257556 -16 30 37.36088
 2018-Dec-15 01:05 Am  13 23 37.390319 -16 30 37.50636
 2018-Dec-15 01:06 Am  13 23 37.523079 -16 30 37.65190
 2018-Dec-15 01:07 Am  13 23 37.655838 -16 30 37.79750
 2018-Dec-15 01:08 Am  13 23 37.788594 -16 30 37.94317
 2018-Dec-15 01:09 Am  13 23 37.921347 -16 30 38.08889
 2018-Dec-15 01:10 Am  13 23 38.054099 -16 30 38.23468
 2018-Dec-15 01:11 Am  13 23 38.186847 -16 30 38.38052
 2018-Dec-15 01:12 Am  13 23 38.319594 -16 30 38.52643
 2018-Dec-15 01:13 Am  13 23 38.452337 -16 30 38.67239
 2018-Dec-15 01:14 Am  13 23 38.585078 -16 30 38.81842
 2018-Dec-15 01:15 Am  13 23 38.717816 -16 30 38.96450
 2018-Dec-15 01:16 Am  13 23 38.850552 -16 30 39.11065
 2018-Dec-15 01:17  m  13 23 38.983284 -16 30 39.25686
 2018-Dec-15 01:18  m  13 23 39.116014 -16 30 39.40313
 2018-Dec-15 01:19  m  13 23 39.248740 -16 30 39.54945
 2018-Dec-15 01:20  m  13 23 39.381464 -16 30 39.69584
 2018-Dec-15 01:21  m  13 23 39.514184 -16 30 39.84229
 2018-Dec-15 01:22  m  13 23 39.646901 -16 30 39.98880
 2018-Dec-15 01:23  m  13 23 39.779615 -16 30 40.13536
 2018-Dec-15 01:24  m  13 23 39.912326 -16 30 40.28199
 2018-Dec-15 01:25  m  13 23 40.045033 -16 30 40.42868
 2018-Dec-15 01:26  m  13 23 40.177737 -16 30 40.57543
 2018-Dec-15 01:27  m  13 23 40.310437 -16 30 40.72223
 2018-Dec-15 01:28  m  13 23 40.443134 -16 30 40.86910
 2018-Dec-15 01:29  m  13 23 40.575827 -16 30 41.01602
 2018-Dec-15 01:30  m  13 23 40.708516 -16 30 41.16301
 2018-Dec-15 01:31  m  13 23 40.841202 -16 30 41.31005
 2018-Dec-15 01:32  m  13 23 40.973884 -16 30 41.45716
 2018-Dec-15 01:33  m  13 23 41.106562 -16 30 41.60432
 2018-Dec-15 01:34  m  13 23 41.239236 -16 30 41.75155
 2018-Dec-15 01:35  m  13 23 41.371906 -16 30 41.89883
 2018-Dec-15 01:36  m  13 23 41.504572 -16 30 42.04617
 2018-Dec-15 01:37  m  13 23 41.637233 -16 30 42.19357
 2018-Dec-15 01:38  m  13 23 41.769891 -16 30 42.34103
 2018-Dec-15 01:39  m  13 23 41.902544 -16 30 42.48854
 2018-Dec-15 01:40  m  13 23 42.035193 -16 30 42.63612
 2018-Dec-15 01:41  m  13 23 42.167838 -16 30 42.78376
 2018-Dec-15 01:42  m  13 23 42.300478 -16 30 42.93145
 2018-Dec-15 01:43  m  13 23 42.433114 -16 30 43.07920
 2018-Dec-15 01:44  m  13 23 42.565745 -16 30 43.22701
 2018-Dec-15 01:45  m  13 23 42.698371 -16 30 43.37488
 2018-Dec-15 01:46  m  13 23 42.830993 -16 30 43.52281
 2018-Dec-15 01:47  m  13 23 42.963610 -16 30 43.67080
 2018-Dec-15 01:48  m  13 23 43.096222 -16 30 43.81884
 2018-Dec-15 01:49  m  13 23 43.228829 -16 30 43.96694
 2018-Dec-15 01:50  m  13 23 43.361431 -16 30 44.11510
 2018-Dec-15 01:51  m  13 23 43.494028 -16 30 44.26332
